<?xml version="1.0" encoding="UTF-8"?>
<gpx version="1.1" creator="trail-train test fixture" xmlns="http://www.topografix.com/GPX/1/1">
  <wpt lat="38.200000" lon="-107.400000"><ele>2768.4</ele><name>Lantern Draw TH</name></wpt>
  <wpt lat="38.376561" lon="-107.338106"><ele>2986.7</ele><name>Cold Fork Aid</name></wpt>
  <wpt lat="38.531935" lon="-107.300821"><ele>2960.2</ele><name>Quartz Bench Aid</name></wpt>
  <wpt lat="38.680246" lon="-107.290165"><ele>3115.9</ele><name>Nine Mile Aid</name></wpt>
  <wpt lat="38.828557" lon="-107.306611"><ele>2491.4</ele><name>Slabtown Aid</name></wpt>
  <wpt lat="38.976868" lon="-107.346102"><ele>3470.4</ele><name>Bitterroot Aid</name></wpt>
  <wpt lat="39.111055" lon="-107.393637"><ele>2978.0</ele><name>Stonecrop Aid</name></wpt>
  <wpt lat="39.245241" lon="-107.442462"><ele>2921.8</ele><name>Hollow Mesa Aid</name></wpt>
  <wpt lat="39.379428" lon="-107.482677"><ele>2910.0</ele><name>Tin Cup Aid</name></wpt>
  <wpt lat="39.506551" lon="-107.505407"><ele>3038.3</ele><name>Pinyon Gate Aid</name></wpt>
  <trk><name>Mesa Monster 100 — fixture course</name><trkseg>
      <trkpt lat="38.200000" lon="-107.400000"><ele>2768.4</ele></trkpt>
      <trkpt lat="38.207062" lon="-107.397371"><ele>2883.0</ele></trkpt>
      <trkpt lat="38.214125" lon="-107.394743"><ele>2996.5</ele></trkpt>
      <trkpt lat="38.221187" lon="-107.392118"><ele>3102.3</ele></trkpt>
      <trkpt lat="38.228250" lon="-107.389498"><ele>3193.6</ele></trkpt>
      <trkpt lat="38.235312" lon="-107.386884"><ele>3264.3</ele></trkpt>
      <trkpt lat="38.242375" lon="-107.384277"><ele>3309.3</ele></trkpt>
      <trkpt lat="38.249437" lon="-107.381679"><ele>3325.9</ele></trkpt>
      <trkpt lat="38.256500" lon="-107.379092"><ele>3313.5</ele></trkpt>
      <trkpt lat="38.263562" lon="-107.376516"><ele>3274.5</ele></trkpt>
      <trkpt lat="38.270624" lon="-107.373954"><ele>3213.1</ele></trkpt>
      <trkpt lat="38.277687" lon="-107.371407"><ele>3135.5</ele></trkpt>
      <trkpt lat="38.284749" lon="-107.368877"><ele>3048.9</ele></trkpt>
      <trkpt lat="38.291812" lon="-107.366364"><ele>2960.7</ele></trkpt>
      <trkpt lat="38.298874" lon="-107.363870"><ele>2877.7</ele></trkpt>
      <trkpt lat="38.305937" lon="-107.361397"><ele>2805.8</ele></trkpt>
      <trkpt lat="38.312999" lon="-107.358946"><ele>2749.1</ele></trkpt>
      <trkpt lat="38.320061" lon="-107.356518"><ele>2710.3</ele></trkpt>
      <trkpt lat="38.327124" lon="-107.354116"><ele>2690.6</ele></trkpt>
      <trkpt lat="38.334186" lon="-107.351739"><ele>2689.8</ele></trkpt>
      <trkpt lat="38.341249" lon="-107.349390"><ele>2706.9</ele></trkpt>
      <trkpt lat="38.348311" lon="-107.347070"><ele>2740.0</ele></trkpt>
      <trkpt lat="38.355374" lon="-107.344780"><ele>2786.9</ele></trkpt>
      <trkpt lat="38.362436" lon="-107.342522"><ele>2845.3</ele></trkpt>
      <trkpt lat="38.369499" lon="-107.340297"><ele>2912.7</ele></trkpt>
      <trkpt lat="38.376561" lon="-107.338106"><ele>2986.7</ele></trkpt>
      <trkpt lat="38.383623" lon="-107.335950"><ele>3064.8</ele></trkpt>
      <trkpt lat="38.390686" lon="-107.333831"><ele>3144.8</ele></trkpt>
      <trkpt lat="38.397748" lon="-107.331749"><ele>3224.3</ele></trkpt>
      <trkpt lat="38.404811" lon="-107.329707"><ele>3301.2</ele></trkpt>
      <trkpt lat="38.411873" lon="-107.327704"><ele>3373.1</ele></trkpt>
      <trkpt lat="38.418936" lon="-107.325743"><ele>3438.2</ele></trkpt>
      <trkpt lat="38.425998" lon="-107.323825"><ele>3494.5</ele></trkpt>
      <trkpt lat="38.433061" lon="-107.321950"><ele>3540.2</ele></trkpt>
      <trkpt lat="38.440123" lon="-107.320119"><ele>3574.1</ele></trkpt>
      <trkpt lat="38.447185" lon="-107.318334"><ele>3595.0</ele></trkpt>
      <trkpt lat="38.454248" lon="-107.316596"><ele>3602.2</ele></trkpt>
      <trkpt lat="38.461310" lon="-107.314906"><ele>3595.4</ele></trkpt>
      <trkpt lat="38.468373" lon="-107.313264"><ele>3574.8</ele></trkpt>
      <trkpt lat="38.475435" lon="-107.311672"><ele>3540.9</ele></trkpt>
      <trkpt lat="38.482498" lon="-107.310130"><ele>3494.5</ele></trkpt>
      <trkpt lat="38.489560" lon="-107.308639"><ele>3437.1</ele></trkpt>
      <trkpt lat="38.496622" lon="-107.307201"><ele>3370.2</ele></trkpt>
      <trkpt lat="38.503685" lon="-107.305816"><ele>3295.5</ele></trkpt>
      <trkpt lat="38.510747" lon="-107.304485"><ele>3215.2</ele></trkpt>
      <trkpt lat="38.517810" lon="-107.303208"><ele>3131.1</ele></trkpt>
      <trkpt lat="38.524872" lon="-107.301986"><ele>3045.5</ele></trkpt>
      <trkpt lat="38.531935" lon="-107.300821"><ele>2960.2</ele></trkpt>
      <trkpt lat="38.538997" lon="-107.299712"><ele>2877.2</ele></trkpt>
      <trkpt lat="38.546060" lon="-107.298660"><ele>2798.3</ele></trkpt>
      <trkpt lat="38.553122" lon="-107.297667"><ele>2725.1</ele></trkpt>
      <trkpt lat="38.560184" lon="-107.296732"><ele>2659.1</ele></trkpt>
      <trkpt lat="38.567247" lon="-107.295855"><ele>2601.6</ele></trkpt>
      <trkpt lat="38.574309" lon="-107.295039"><ele>2553.6</ele></trkpt>
      <trkpt lat="38.581372" lon="-107.294282"><ele>2516.1</ele></trkpt>
      <trkpt lat="38.588434" lon="-107.293586"><ele>2490.0</ele></trkpt>
      <trkpt lat="38.595497" lon="-107.292950"><ele>2475.7</ele></trkpt>
      <trkpt lat="38.602559" lon="-107.292376"><ele>2473.8</ele></trkpt>
      <trkpt lat="38.609622" lon="-107.291863"><ele>2484.6</ele></trkpt>
      <trkpt lat="38.616684" lon="-107.291412"><ele>2507.9</ele></trkpt>
      <trkpt lat="38.623746" lon="-107.291023"><ele>2543.5</ele></trkpt>
      <trkpt lat="38.630809" lon="-107.290697"><ele>2590.9</ele></trkpt>
      <trkpt lat="38.637871" lon="-107.290432"><ele>2648.9</ele></trkpt>
      <trkpt lat="38.644934" lon="-107.290231"><ele>2716.2</ele></trkpt>
      <trkpt lat="38.651996" lon="-107.290092"><ele>2791.0</ele></trkpt>
      <trkpt lat="38.659059" lon="-107.290016"><ele>2871.1</ele></trkpt>
      <trkpt lat="38.666121" lon="-107.290003"><ele>2953.9</ele></trkpt>
      <trkpt lat="38.673183" lon="-107.290052"><ele>3036.5</ele></trkpt>
      <trkpt lat="38.680246" lon="-107.290165"><ele>3115.9</ele></trkpt>
      <trkpt lat="38.687308" lon="-107.290340"><ele>3188.9</ele></trkpt>
      <trkpt lat="38.694371" lon="-107.290578"><ele>3252.8</ele></trkpt>
      <trkpt lat="38.701433" lon="-107.290878"><ele>3304.7</ele></trkpt>
      <trkpt lat="38.708496" lon="-107.291241"><ele>3342.5</ele></trkpt>
      <trkpt lat="38.715558" lon="-107.291666"><ele>3364.6</ele></trkpt>
      <trkpt lat="38.722621" lon="-107.292153"><ele>3370.0</ele></trkpt>
      <trkpt lat="38.729683" lon="-107.292701"><ele>3358.5</ele></trkpt>
      <trkpt lat="38.736745" lon="-107.293311"><ele>3330.8</ele></trkpt>
      <trkpt lat="38.743808" lon="-107.293981"><ele>3288.0</ele></trkpt>
      <trkpt lat="38.750870" lon="-107.294713"><ele>3232.1</ele></trkpt>
      <trkpt lat="38.757933" lon="-107.295504"><ele>3165.5</ele></trkpt>
      <trkpt lat="38.764995" lon="-107.296355"><ele>3090.9</ele></trkpt>
      <trkpt lat="38.772058" lon="-107.297266"><ele>3011.2</ele></trkpt>
      <trkpt lat="38.779120" lon="-107.298235"><ele>2929.4</ele></trkpt>
      <trkpt lat="38.786183" lon="-107.299262"><ele>2848.3</ele></trkpt>
      <trkpt lat="38.793245" lon="-107.300347"><ele>2770.4</ele></trkpt>
      <trkpt lat="38.800307" lon="-107.301488"><ele>2697.9</ele></trkpt>
      <trkpt lat="38.807370" lon="-107.302686"><ele>2632.6</ele></trkpt>
      <trkpt lat="38.814432" lon="-107.303940"><ele>2575.8</ele></trkpt>
      <trkpt lat="38.821495" lon="-107.305249"><ele>2528.6</ele></trkpt>
      <trkpt lat="38.828557" lon="-107.306611"><ele>2491.4</ele></trkpt>
      <trkpt lat="38.835620" lon="-107.308027"><ele>2464.6</ele></trkpt>
      <trkpt lat="38.842682" lon="-107.309496"><ele>2448.3</ele></trkpt>
      <trkpt lat="38.849745" lon="-107.311016"><ele>2442.1</ele></trkpt>
      <trkpt lat="38.856807" lon="-107.312587"><ele>2445.8</ele></trkpt>
      <trkpt lat="38.863869" lon="-107.314208"><ele>2459.1</ele></trkpt>
      <trkpt lat="38.870932" lon="-107.315878"><ele>2481.5</ele></trkpt>
      <trkpt lat="38.877994" lon="-107.317597"><ele>2512.5</ele></trkpt>
      <trkpt lat="38.885057" lon="-107.319362"><ele>2551.7</ele></trkpt>
      <trkpt lat="38.892119" lon="-107.321173"><ele>2598.5</ele></trkpt>
      <trkpt lat="38.899182" lon="-107.323030"><ele>2652.4</ele></trkpt>
      <trkpt lat="38.906244" lon="-107.324930"><ele>2712.9</ele></trkpt>
      <trkpt lat="38.913306" lon="-107.326873"><ele>2779.3</ele></trkpt>
      <trkpt lat="38.920369" lon="-107.328858"><ele>2850.7</ele></trkpt>
      <trkpt lat="38.927431" lon="-107.330884"><ele>2926.3</ele></trkpt>
      <trkpt lat="38.934494" lon="-107.332949"><ele>3005.0</ele></trkpt>
      <trkpt lat="38.941556" lon="-107.335053"><ele>3085.7</ele></trkpt>
      <trkpt lat="38.948619" lon="-107.337193"><ele>3167.1</ele></trkpt>
      <trkpt lat="38.955681" lon="-107.339370"><ele>3247.8</ele></trkpt>
      <trkpt lat="38.962744" lon="-107.341581"><ele>3326.2</ele></trkpt>
      <trkpt lat="38.969806" lon="-107.343825"><ele>3400.9</ele></trkpt>
      <trkpt lat="38.976868" lon="-107.346102"><ele>3470.4</ele></trkpt>
      <trkpt lat="38.983931" lon="-107.348409"><ele>3533.0</ele></trkpt>
      <trkpt lat="38.990993" lon="-107.350746"><ele>3587.4</ele></trkpt>
      <trkpt lat="38.998056" lon="-107.353111"><ele>3632.3</ele></trkpt>
      <trkpt lat="39.005118" lon="-107.355503"><ele>3666.6</ele></trkpt>
      <trkpt lat="39.012181" lon="-107.357920"><ele>3689.5</ele></trkpt>
      <trkpt lat="39.019243" lon="-107.360362"><ele>3700.4</ele></trkpt>
      <trkpt lat="39.026306" lon="-107.362826"><ele>3698.9</ele></trkpt>
      <trkpt lat="39.033368" lon="-107.365311"><ele>3685.2</ele></trkpt>
      <trkpt lat="39.040430" lon="-107.367816"><ele>3659.4</ele></trkpt>
      <trkpt lat="39.047493" lon="-107.370339"><ele>3622.2</ele></trkpt>
      <trkpt lat="39.054555" lon="-107.372880"><ele>3574.5</ele></trkpt>
      <trkpt lat="39.061618" lon="-107.375436"><ele>3517.4</ele></trkpt>
      <trkpt lat="39.068680" lon="-107.378005"><ele>3452.2</ele></trkpt>
      <trkpt lat="39.075743" lon="-107.380588"><ele>3380.3</ele></trkpt>
      <trkpt lat="39.082805" lon="-107.383182"><ele>3303.4</ele></trkpt>
      <trkpt lat="39.089867" lon="-107.385785"><ele>3223.1</ele></trkpt>
      <trkpt lat="39.096930" lon="-107.388396"><ele>3141.1</ele></trkpt>
      <trkpt lat="39.103992" lon="-107.391014"><ele>3058.8</ele></trkpt>
      <trkpt lat="39.111055" lon="-107.393637"><ele>2978.0</ele></trkpt>
      <trkpt lat="39.118117" lon="-107.396264"><ele>2900.1</ele></trkpt>
      <trkpt lat="39.125180" lon="-107.398892"><ele>2826.5</ele></trkpt>
      <trkpt lat="39.132242" lon="-107.401522"><ele>2758.3</ele></trkpt>
      <trkpt lat="39.139305" lon="-107.404150"><ele>2696.8</ele></trkpt>
      <trkpt lat="39.146367" lon="-107.406777"><ele>2643.0</ele></trkpt>
      <trkpt lat="39.153429" lon="-107.409399"><ele>2597.7</ele></trkpt>
      <trkpt lat="39.160492" lon="-107.412016"><ele>2561.7</ele></trkpt>
      <trkpt lat="39.167554" lon="-107.414626"><ele>2535.5</ele></trkpt>
      <trkpt lat="39.174617" lon="-107.417228"><ele>2519.9</ele></trkpt>
      <trkpt lat="39.181679" lon="-107.419820"><ele>2515.0</ele></trkpt>
      <trkpt lat="39.188742" lon="-107.422400"><ele>2521.1</ele></trkpt>
      <trkpt lat="39.195804" lon="-107.424968"><ele>2538.3</ele></trkpt>
      <trkpt lat="39.202867" lon="-107.427522"><ele>2566.4</ele></trkpt>
      <trkpt lat="39.209929" lon="-107.430059"><ele>2605.1</ele></trkpt>
      <trkpt lat="39.216991" lon="-107.432580"><ele>2653.5</ele></trkpt>
      <trkpt lat="39.224054" lon="-107.435082"><ele>2710.8</ele></trkpt>
      <trkpt lat="39.231116" lon="-107.437564"><ele>2775.7</ele></trkpt>
      <trkpt lat="39.238179" lon="-107.440024"><ele>2846.7</ele></trkpt>
      <trkpt lat="39.245241" lon="-107.442462"><ele>2921.8</ele></trkpt>
      <trkpt lat="39.252304" lon="-107.444875"><ele>2999.0</ele></trkpt>
      <trkpt lat="39.259366" lon="-107.447263"><ele>3076.0</ele></trkpt>
      <trkpt lat="39.266428" lon="-107.449624"><ele>3150.4</ele></trkpt>
      <trkpt lat="39.273491" lon="-107.451956"><ele>3219.7</ele></trkpt>
      <trkpt lat="39.280553" lon="-107.454259"><ele>3281.4</ele></trkpt>
      <trkpt lat="39.287616" lon="-107.456530"><ele>3333.6</ele></trkpt>
      <trkpt lat="39.294678" lon="-107.458770"><ele>3374.1</ele></trkpt>
      <trkpt lat="39.301741" lon="-107.460976"><ele>3401.6</ele></trkpt>
      <trkpt lat="39.308803" lon="-107.463147"><ele>3415.0</ele></trkpt>
      <trkpt lat="39.315866" lon="-107.465281"><ele>3413.8</ele></trkpt>
      <trkpt lat="39.322928" lon="-107.467379"><ele>3398.0</ele></trkpt>
      <trkpt lat="39.329990" lon="-107.469438"><ele>3368.2</ele></trkpt>
      <trkpt lat="39.337053" lon="-107.471457"><ele>3325.6</ele></trkpt>
      <trkpt lat="39.344115" lon="-107.473436"><ele>3271.6</ele></trkpt>
      <trkpt lat="39.351178" lon="-107.475372"><ele>3208.3</ele></trkpt>
      <trkpt lat="39.358240" lon="-107.477266"><ele>3137.9</ele></trkpt>
      <trkpt lat="39.365303" lon="-107.479115"><ele>3063.0</ele></trkpt>
      <trkpt lat="39.372365" lon="-107.480919"><ele>2986.1</ele></trkpt>
      <trkpt lat="39.379428" lon="-107.482677"><ele>2910.0</ele></trkpt>
      <trkpt lat="39.386490" lon="-107.484388"><ele>2837.3</ele></trkpt>
      <trkpt lat="39.393552" lon="-107.486050"><ele>2770.5</ele></trkpt>
      <trkpt lat="39.400615" lon="-107.487664"><ele>2712.2</ele></trkpt>
      <trkpt lat="39.407677" lon="-107.489227"><ele>2664.5</ele></trkpt>
      <trkpt lat="39.414740" lon="-107.490739"><ele>2629.3</ele></trkpt>
      <trkpt lat="39.421802" lon="-107.492199"><ele>2608.2</ele></trkpt>
      <trkpt lat="39.428865" lon="-107.493607"><ele>2602.2</ele></trkpt>
      <trkpt lat="39.435927" lon="-107.494961"><ele>2611.5</ele></trkpt>
      <trkpt lat="39.442989" lon="-107.496261"><ele>2635.8</ele></trkpt>
      <trkpt lat="39.450052" lon="-107.497506"><ele>2673.5</ele></trkpt>
      <trkpt lat="39.457114" lon="-107.498695"><ele>2722.3</ele></trkpt>
      <trkpt lat="39.464177" lon="-107.499828"><ele>2779.0</ele></trkpt>
      <trkpt lat="39.471239" lon="-107.500904"><ele>2839.3</ele></trkpt>
      <trkpt lat="39.478302" lon="-107.501922"><ele>2898.8</ele></trkpt>
      <trkpt lat="39.485364" lon="-107.502882"><ele>2952.6</ele></trkpt>
      <trkpt lat="39.492427" lon="-107.503783"><ele>2996.2</ele></trkpt>
      <trkpt lat="39.499489" lon="-107.504625"><ele>3025.7</ele></trkpt>
      <trkpt lat="39.506551" lon="-107.505407"><ele>3038.3</ele></trkpt>
      <trkpt lat="39.513614" lon="-107.506128"><ele>3032.7</ele></trkpt>
      <trkpt lat="39.520676" lon="-107.506789"><ele>3008.8</ele></trkpt>
      <trkpt lat="39.527739" lon="-107.507390"><ele>2968.1</ele></trkpt>
      <trkpt lat="39.534801" lon="-107.507928"><ele>2913.3</ele></trkpt>
      <trkpt lat="39.541864" lon="-107.508405"><ele>2848.0</ele></trkpt>
      <trkpt lat="39.548926" lon="-107.508820"><ele>2776.0</ele></trkpt>
      <trkpt lat="39.555989" lon="-107.509173"><ele>2701.6</ele></trkpt>
      <trkpt lat="39.563051" lon="-107.509464"><ele>2628.3</ele></trkpt>
      <trkpt lat="39.570113" lon="-107.509692"><ele>2559.2</ele></trkpt>
      <trkpt lat="39.577176" lon="-107.509857"><ele>2496.6</ele></trkpt>
      <trkpt lat="39.584238" lon="-107.509960"><ele>2441.8</ele></trkpt>
      <trkpt lat="39.591301" lon="-107.509999"><ele>2395.4</ele></trkpt>
      <trkpt lat="39.598363" lon="-107.509976"><ele>2357.3</ele></trkpt>
      <trkpt lat="39.605426" lon="-107.509890"><ele>2326.9</ele></trkpt>
      <trkpt lat="39.612488" lon="-107.509742"><ele>2303.2</ele></trkpt>
  </trkseg></trk>
</gpx>
